[{"OBJECT_NAME":"RISAT-2B","OBJECT_ID":"2019-028A","EPOCH":"2026-03-09T20:41:11.920992","MEAN_MOTION":15.01650685,"ECCENTRICITY":0.00079997,"INCLINATION":36.9961,"RA_OF_ASC_NODE":222.9871,"ARG_OF_PERICENTER":294.4328,"MEAN_ANOMALY":65.558,"EPHEMERIS_TYPE":0,"CLASSIFICATION_TYPE":"U","NORAD_CAT_ID":44233,"ELEMENT_SET_NO":999,"REV_AT_EPOCH":37289,"BSTAR":0.00037049954,"MEAN_MOTION_DOT":4.829e-5,"MEAN_MOTION_DDOT":0},{"OBJECT_NAME":"STARLINK-34780","OBJECT_ID":"2025-165U","EPOCH":"2026-03-09T17:21:31.633920","MEAN_MOTION":15.0564675,"ECCENTRICITY":6.619e-5,"INCLINATION":97.6019,"RA_OF_ASC_NODE":147.234,"ARG_OF_PERICENTER":113.2341,"MEAN_ANOMALY":246.8956,"EPHEMERIS_TYPE":0,"CLASSIFICATION_TYPE":"U","NORAD_CAT_ID":65074,"ELEMENT_SET_NO":999,"REV_AT_EPOCH":3479,"BSTAR":0.00042063792,"MEAN_MOTION_DOT":6.013e-5,"MEAN_MOTION_DDOT":0}]
